[
    {
        "Altitude(m)": 553490.0489438982,
        "Argument of Periapsis(deg)": 0.019868973332140504,
        "Eccentricity": 0.0,
        "Inclination(deg)": 53.0,
        "Latitude(deg)": 10.60640865468826,
        "Longitude(deg)": -135.44780730667824,
        "Mean Anomaly(deg)": 166.63847860273276,
        "RAAN(deg)": 154.97043010558406,
        "Satellite Name": "Starlink Shell 1 690",
        "Satellite Number": 690,
        "Semi-Major Axis(m)": 6931778.249405717,
        "Time(s)": 570
    },
    {
        "Altitude(m)": 553498.0483041201,
        "Argument of Periapsis(deg)": 0.02021755181165174,
        "Eccentricity": 0.0,
        "Inclination(deg)": 53.0,
        "Latitude(deg)": 10.107230919295976,
        "Longitude(deg)": -135.09983448157817,
        "Mean Anomaly(deg)": 167.26530980628945,
        "RAAN(deg)": 154.96991133550657,
        "Satellite Name": "Starlink Shell 1 690",
        "Satellite Number": 690,
        "Semi-Major Axis(m)": 6931778.249405717,
        "Time(s)": 580
    },
    {
        "Altitude(m)": 553508.7334171298,
        "Argument of Periapsis(deg)": 0.020566130291162974,
        "Eccentricity": 0.0,
        "Inclination(deg)": 53.0,
        "Latitude(deg)": 9.607585352576535,
        "Longitude(deg)": -134.75306464368217,
        "Mean Anomaly(deg)": 167.89214100984623,
        "RAAN(deg)": 154.9693925654291,
        "Satellite Name": "Starlink Shell 1 690",
        "Satellite Number": 690,
        "Semi-Major Axis(m)": 6931778.249405717,
        "Time(s)": 590
    },
    {
        "Altitude(m)": 553522.1222578419,
        "Argument of Periapsis(deg)": 0.020914708770674213,
        "Eccentricity": 0.0,
        "Inclination(deg)": 53.0,
        "Latitude(deg)": 9.107497240022713,
        "Longitude(deg)": -134.40743525592185,
        "Mean Anomaly(deg)": 168.51897221340295,
        "RAAN(deg)": 154.96887379535164,
        "Satellite Name": "Starlink Shell 1 690",
        "Satellite Number": 690,
        "Semi-Major Axis(m)": 6931778.249405717,
        "Time(s)": 600
    },
    {
        "Altitude(m)": 553538.2315451478,
        "Argument of Periapsis(deg)": 0.021263287250185448,
        "Eccentricity": 0.0,
        "Inclination(deg)": 53.0,
        "Latitude(deg)": 8.60699162649314,
        "Longitude(deg)": -134.06288427791887,
        "Mean Anomaly(deg)": 169.14580341695964,
        "RAAN(deg)": 154.96835502527415,
        "Satellite Name": "Starlink Shell 1 690",
        "Satellite Number": 690,
        "Semi-Major Axis(m)": 6931778.249405717,
        "Time(s)": 610
    },
    {
        "Altitude(m)": 553557.0767308404,
        "Argument of Periapsis(deg)": 0.021611865729696686,
        "Eccentricity": 0.0,
        "Inclination(deg)": 53.0,
        "Latitude(deg)": 8.106093329912184,
        "Longitude(deg)": -133.7193496352889,
        "Mean Anomaly(deg)": 169.77263462051636,
        "RAAN(deg)": 154.9678362551967,
        "Satellite Name": "Starlink Shell 1 690",
        "Satellite Number": 690,
        "Semi-Major Axis(m)": 6931778.249405717,
        "Time(s)": 620
    },
    {
        "Altitude(m)": 553578.671989137,
        "Argument of Periapsis(deg)": 0.02196044420920792,
        "Eccentricity": 0.0,
        "Inclination(deg)": 53.0,
        "Latitude(deg)": 7.604826954761362,
        "Longitude(deg)": -133.37677037001038,
        "Mean Anomaly(deg)": 170.39946582407302,
        "RAAN(deg)": 154.96731748511922,
        "Satellite Name": "Starlink Shell 1 690",
        "Satellite Number": 690,
        "Semi-Major Axis(m)": 6931778.249405717,
        "Time(s)": 630
    },
    {
        "Altitude(m)": 553603.0302068812,
        "Argument of Periapsis(deg)": 0.02230902268871916,
        "Eccentricity": 0.0,
        "Inclination(deg)": 53.0,
        "Latitude(deg)": 7.103216905365722,
        "Longitude(deg)": -133.03508526943142,
        "Mean Anomaly(deg)": 171.02629702762982,
        "RAAN(deg)": 154.96679871504173,
        "Satellite Name": "Starlink Shell 1 690",
        "Satellite Number": 690,
        "Semi-Major Axis(m)": 6931778.249405717,
        "Time(s)": 640
    },
    {
        "Altitude(m)": 553630.1629743414,
        "Argument of Periapsis(deg)": 0.022657601168230398,
        "Eccentricity": 0.0,
        "Inclination(deg)": 53.0,
        "Latitude(deg)": 6.601287398997081,
        "Longitude(deg)": -132.69423401682738,
        "Mean Anomaly(deg)": 171.65312823118649,
        "RAAN(deg)": 154.96627994496427,
        "Satellite Name": "Starlink Shell 1 690",
        "Satellite Number": 690,
        "Semi-Major Axis(m)": 6931778.249405717,
        "Time(s)": 650
    },
    {
        "Altitude(m)": 553660.0805766792,
        "Argument of Periapsis(deg)": 0.023006179647741636,
        "Eccentricity": 0.0,
        "Inclination(deg)": 53.0,
        "Latitude(deg)": 6.099062478797326,
        "Longitude(deg)": -132.35415666107968,
        "Mean Anomaly(deg)": 172.2799594347432,
        "RAAN(deg)": 154.9657611748868,
        "Satellite Name": "Starlink Shell 1 690",
        "Satellite Number": 690,
        "Semi-Major Axis(m)": 6931778.249405717,
        "Time(s)": 660
    },
    {
        "Altitude(m)": 553692.7919860528,
        "Argument of Periapsis(deg)": 0.023354758127252868,
        "Eccentricity": 0.0,
        "Inclination(deg)": 53.0,
        "Latitude(deg)": 5.596566026538725,
        "Longitude(deg)": -132.0147930864463,
        "Mean Anomaly(deg)": 172.90679063829987,
        "RAAN(deg)": 154.96524240480932,
        "Satellite Name": "Starlink Shell 1 690",
        "Satellite Number": 690,
        "Semi-Major Axis(m)": 6931778.249405717,
        "Time(s)": 670
    },
    {
        "Altitude(m)": 553728.304854365,
        "Argument of Periapsis(deg)": 0.023703336606764106,
        "Eccentricity": 0.0,
        "Inclination(deg)": 53.0,
        "Latitude(deg)": 5.093821775233242,
        "Longitude(deg)": -131.67608399529246,
        "Mean Anomaly(deg)": 173.53362184185661,
        "RAAN(deg)": 154.96472363473185,
        "Satellite Name": "Starlink Shell 1 690",
        "Satellite Number": 690,
        "Semi-Major Axis(m)": 6931778.249405717,
        "Time(s)": 680
    },
    {
        "Altitude(m)": 553766.6255066905,
        "Argument of Periapsis(deg)": 0.024051915086275345,
        "Eccentricity": 0.0,
        "Inclination(deg)": 53.0,
        "Latitude(deg)": 4.590853321599683,
        "Longitude(deg)": -131.33797037803262,
        "Mean Anomaly(deg)": 174.1604530454134,
        "RAAN(deg)": 154.9642048646544,
        "Satellite Name": "Starlink Shell 1 690",
        "Satellite Number": 690,
        "Semi-Major Axis(m)": 6931778.249405717,
        "Time(s)": 690
    },
    {
        "Altitude(m)": 553807.7589353442,
        "Argument of Periapsis(deg)": 0.024400493565786583,
        "Eccentricity": 0.0,
        "Inclination(deg)": 53.0,
        "Latitude(deg)": 4.087684138401476,
        "Longitude(deg)": -131.0003929831518,
        "Mean Anomaly(deg)": 174.78728424897005,
        "RAAN(deg)": 154.9636860945769,
        "Satellite Name": "Starlink Shell 1 690",
        "Satellite Number": 690,
        "Semi-Major Axis(m)": 6931778.249405717,
        "Time(s)": 700
    },
    {
        "Altitude(m)": 553851.7087946218,
        "Argument of Periapsis(deg)": 0.024749072045297815,
        "Eccentricity": 0.0,
        "Inclination(deg)": 53.0,
        "Latitude(deg)": 3.5843375866693656,
        "Longitude(deg)": -130.66329330017493,
        "Mean Anomaly(deg)": 175.41411545252677,
        "RAAN(deg)": 154.96316732449944,
        "Satellite Name": "Starlink Shell 1 690",
        "Satellite Number": 690,
        "Semi-Major Axis(m)": 6931778.249405717,
        "Time(s)": 710
    },
    {
        "Altitude(m)": 553898.4773961949,
        "Argument of Periapsis(deg)": 0.025097650524809053,
        "Eccentricity": 0.0,
        "Inclination(deg)": 53.0,
        "Latitude(deg)": 3.0808369278164673,
        "Longitude(deg)": -130.3266130298323,
        "Mean Anomaly(deg)": 176.04094665608343,
        "RAAN(deg)": 154.96264855442197,
        "Satellite Name": "Starlink Shell 1 690",
        "Satellite Number": 690,
        "Semi-Major Axis(m)": 6931778.249405717,
        "Time(s)": 720
    },
    {
        "Altitude(m)": 553948.065705205,
        "Argument of Periapsis(deg)": 0.02544622900432029,
        "Eccentricity": 0.0,
        "Inclination(deg)": 53.0,
        "Latitude(deg)": 2.577205335659031,
        "Longitude(deg)": -129.99029355428846,
        "Mean Anomaly(deg)": 176.66777785964024,
        "RAAN(deg)": 154.96212978434448,
        "Satellite Name": "Starlink Shell 1 690",
        "Satellite Number": 690,
        "Semi-Major Axis(m)": 6931778.249405717,
        "Time(s)": 730
    },
    {
        "Altitude(m)": 554000.4733369946,
        "Argument of Periapsis(deg)": 0.02579480748383153,
        "Eccentricity": 0.0,
        "Inclination(deg)": 53.0,
        "Latitude(deg)": 2.0734659083564018,
        "Longitude(deg)": -129.65427692030147,
        "Mean Anomaly(deg)": 177.29460906319696,
        "RAAN(deg)": 154.96161101426702,
        "Satellite Name": "Starlink Shell 1 690",
        "Satellite Number": 690,
        "Semi-Major Axis(m)": 6931778.249405717,
        "Time(s)": 740
    },
    {
        "Altitude(m)": 554055.6985545371,
        "Argument of Periapsis(deg)": 0.026143385963342765,
        "Eccentricity": 0.0,
        "Inclination(deg)": 53.0,
        "Latitude(deg)": 1.569641680277586,
        "Longitude(deg)": -129.31850530955933,
        "Mean Anomaly(deg)": 177.92144026675362,
        "RAAN(deg)": 154.96109224418956,
        "Satellite Name": "Starlink Shell 1 690",
        "Satellite Number": 690,
        "Semi-Major Axis(m)": 6931778.249405717,
        "Time(s)": 750
    }
]